{
  "type": "FeatureCollection",
  "features": [
    {
      "type": "Feature",
      "properties": {
        "norad_id": 36036,
        "name": "SMOS",
        "group": "resource",
        "lat": 43.41272760507739,
        "lon": 177.95586396335972,
        "alt_km": 755.0747260132412,
        "timestamp": "2025-12-27T04:40:45.156821+00:00",
        "meta_object_name": "SMOS",
        "meta_object_id": "2009-059A",
        "meta_epoch": "2025-12-26T11:47:46.851072",
        "meta_mean_motion": 14.39753392,
        "meta_eccentricity": 0.000104,
        "meta_inclination": 98.4382,
        "meta_ra_of_asc_node": 185.3364,
        "meta_arg_of_pericenter": 83.5124,
        "meta_mean_anomaly": 276.6183,
        "meta_ephemeris_type": 0,
        "meta_classification_type": "U",
        "meta_norad_cat_id": 36036,
        "meta_element_set_no": 999,
        "meta_rev_at_epoch": 84860,
        "meta_bstar": 0.00014539,
        "meta_mean_motion_dot": 4.12e-06,
        "meta_mean_motion_ddot": 0,
        "tle_line1": "1 36036U 09059A   25360.49151448  .00000412  00000+0  14539-3 0  9994",
        "tle_line2": "2 36036  98.4382 185.3364 0001040  83.5124 276.6183 14.39753392848607"
      },
      "geometry": {
        "type": "Point",
        "coordinates": [
          177.95586396335972,
          43.41272760507739
        ]
      }
    },
    {
      "type": "Feature",
      "properties": {
        "norad_id": 36110,
        "name": "YAOGAN-7",
        "group": "resource",
        "lat": 42.482848211543306,
        "lon": -124.52759887814645,
        "alt_km": 649.251954762336,
        "timestamp": "2025-12-27T04:40:45.156832+00:00",
        "meta_object_name": "YAOGAN-7",
        "meta_object_id": "2009-069A",
        "meta_epoch": "2025-12-26T15:29:02.012352",
        "meta_mean_motion": 14.77752551,
        "meta_eccentricity": 0.00235216,
        "meta_inclination": 98.0293,
        "meta_ra_of_asc_node": 242.3521,
        "meta_arg_of_pericenter": 233.9323,
        "meta_mean_anomaly": 125.9709,
        "meta_ephemeris_type": 0,
        "meta_classification_type": "U",
        "meta_norad_cat_id": 36110,
        "meta_element_set_no": 999,
        "meta_rev_at_epoch": 86414,
        "meta_bstar": 0.00010378184,
        "meta_mean_motion_dot": 6.94e-06,
        "meta_mean_motion_ddot": 0,
        "tle_line1": "1 36110U 09069A   25360.64516218  .00000694  00000+0  10378-3 0  9994",
        "tle_line2": "2 36110  98.0293 242.3521 0023521 233.9323 125.9709 14.77752551864141"
      },
      "geometry": {
        "type": "Point",
        "coordinates": [
          -124.52759887814645,
          42.482848211543306
        ]
      }
    },
    {
      "type": "Feature",
      "properties": {
        "norad_id": 36605,
        "name": "TANDEM-X",
        "group": "resource",
        "lat": -77.72582234171284,
        "lon": 43.31229400316111,
        "alt_km": 516.936520337832,
        "timestamp": "2025-12-27T04:40:45.156843+00:00",
        "meta_object_name": "TANDEM-X",
        "meta_object_id": "2010-030A",
        "meta_epoch": "2025-12-26T13:13:25.252608",
        "meta_mean_motion": 15.1915819,
        "meta_eccentricity": 0.0001776,
        "meta_inclination": 97.4455,
        "meta_ra_of_asc_node": 5.7293,
        "meta_arg_of_pericenter": 92.0278,
        "meta_mean_anomaly": 268.116,
        "meta_ephemeris_type": 0,
        "meta_classification_type": "U",
        "meta_norad_cat_id": 36605,
        "meta_element_set_no": 999,
        "meta_rev_at_epoch": 86043,
        "meta_bstar": 6.7415e-05,
        "meta_mean_motion_dot": 1.349e-05,
        "meta_mean_motion_ddot": 0,
        "tle_line1": "1 36605U 10030A   25360.55098672  .00001349  00000+0  67415-4 0  9995",
        "tle_line2": "2 36605  97.4455   5.7293 0001776  92.0278 268.1160 15.19158190860436"
      },
      "geometry": {
        "type": "Point",
        "coordinates": [
          43.31229400316111,
          -77.72582234171284
        ]
      }
    },
    {
      "type": "Feature",
      "properties": {
        "norad_id": 36795,
        "name": "CARTOSAT-2B",
        "group": "resource",
        "lat": 21.37991348819506,
        "lon": 46.68403321746522,
        "alt_km": 624.607248125486,
        "timestamp": "2025-12-27T04:40:45.156853+00:00",
        "meta_object_name": "CARTOSAT-2B",
        "meta_object_id": "2010-035A",
        "meta_epoch": "2025-12-26T23:42:36.535104",
        "meta_mean_motion": 14.78746987,
        "meta_eccentricity": 0.00124723,
        "meta_inclination": 97.7831,
        "meta_ra_of_asc_node": 49.5532,
        "meta_arg_of_pericenter": 34.4626,
        "meta_mean_anomaly": 325.7392,
        "meta_ephemeris_type": 0,
        "meta_classification_type": "U",
        "meta_norad_cat_id": 36795,
        "meta_element_set_no": 999,
        "meta_rev_at_epoch": 83440,
        "meta_bstar": 0.00013605395,
        "meta_mean_motion_dot": 9.5e-06,
        "meta_mean_motion_ddot": 0,
        "tle_line1": "1 36795U 10035A   25360.98792286  .00000950  00000+0  13605-3 0  9997",
        "tle_line2": "2 36795  97.7831  49.5532 0012472  34.4626 325.7392 14.78746987834407"
      },
      "geometry": {
        "type": "Point",
        "coordinates": [
          46.68403321746522,
          21.37991348819506
        ]
      }
    },
    {
      "type": "Feature",
      "properties": {
        "norad_id": 36834,
        "name": "YAOGAN-10",
        "group": "resource",
        "lat": 47.91072965895024,
        "lon": 12.047553088632885,
        "alt_km": 609.6206778965352,
        "timestamp": "2025-12-27T04:40:45.156864+00:00",
        "meta_object_name": "YAOGAN-10",
        "meta_object_id": "2010-038A",
        "meta_epoch": "2025-12-26T23:59:55.738752",
        "meta_mean_motion": 14.84660907,
        "meta_eccentricity": 0.0001289,
        "meta_inclination": 97.9136,
        "meta_ra_of_asc_node": 20.7128,
        "meta_arg_of_pericenter": 80.4009,
        "meta_mean_anomaly": 6.5232,
        "meta_ephemeris_type": 0,
        "meta_classification_type": "U",
        "meta_norad_cat_id": 36834,
        "meta_element_set_no": 999,
        "meta_rev_at_epoch": 83165,
        "meta_bstar": 0.00022486051,
        "meta_mean_motion_dot": 1.848e-05,
        "meta_mean_motion_ddot": 0,
        "tle_line1": "1 36834U 10038A   25360.99995068  .00001848  00000+0  22486-3 0  9992",
        "tle_line2": "2 36834  97.9136  20.7128 0001289  80.4009   6.5232 14.84660907831658"
      },
      "geometry": {
        "type": "Point",
        "coordinates": [
          12.047553088632885,
          47.91072965895024
        ]
      }
    },
    {
      "type": "Feature",
      "properties": {
        "norad_id": 37216,
        "name": "COSMO-SKYMED 4",
        "group": "resource",
        "lat": -22.793588957553084,
        "lon": -1.0363194559407913,
        "alt_km": 628.4866012321418,
        "timestamp": "2025-12-27T04:40:45.156874+00:00",
        "meta_object_name": "COSMO-SKYMED 4",
        "meta_object_id": "2010-060A",
        "meta_epoch": "2025-12-26T22:54:21.398112",
        "meta_mean_motion": 14.82164757,
        "meta_eccentricity": 0.00014168,
        "meta_inclination": 97.8809,
        "meta_ra_of_asc_node": 182.0638,
        "meta_arg_of_pericenter": 80.9318,
        "meta_mean_anomaly": 279.2055,
        "meta_ephemeris_type": 0,
        "meta_classification_type": "U",
        "meta_norad_cat_id": 37216,
        "meta_element_set_no": 999,
        "meta_rev_at_epoch": 81905,
        "meta_bstar": 0.00015459745,
        "meta_mean_motion_dot": 1.179e-05,
        "meta_mean_motion_ddot": 0,
        "tle_line1": "1 37216U 10060A   25360.95441433  .00001179  00000+0  15460-3 0  9991",
        "tle_line2": "2 37216  97.8809 182.0638 0001416  80.9318 279.2055 14.82164757819059"
      },
      "geometry": {
        "type": "Point",
        "coordinates": [
          -1.0363194559407913,
          -22.793588957553084
        ]
      }
    },
    {
      "type": "Feature",
      "properties": {
        "norad_id": 37387,
        "name": "RESOURCESAT-2",
        "group": "resource",
        "lat": -78.13492331198236,
        "lon": -162.72014263486457,
        "alt_km": 828.0590672433354,
        "timestamp": "2025-12-27T04:40:45.156885+00:00",
        "meta_object_name": "RESOURCESAT-2",
        "meta_object_id": "2011-015A",
        "meta_epoch": "2025-12-26T22:22:57.428832",
        "meta_mean_motion": 14.21595435,
        "meta_eccentricity": 0.00057377,
        "meta_inclination": 98.7858,
        "meta_ra_of_asc_node": 64.4194,
        "meta_arg_of_pericenter": 3.7046,
        "meta_mean_anomaly": 356.4173,
        "meta_ephemeris_type": 0,
        "meta_classification_type": "U",
        "meta_norad_cat_id": 37387,
        "meta_element_set_no": 999,
        "meta_rev_at_epoch": 76170,
        "meta_bstar": 8.3469935e-05,
        "meta_mean_motion_dot": 1.39e-06,
        "meta_mean_motion_ddot": 0,
        "tle_line1": "1 37387U 11015A   25360.93260913  .00000139  00000+0  83470-4 0  9993",
        "tle_line2": "2 37387  98.7858  64.4194 0005737   3.7046 356.4173 14.21595435761704"
      },
      "geometry": {
        "type": "Point",
        "coordinates": [
          -162.72014263486457,
          -78.13492331198236
        ]
      }
    }
  ]
}